OBJECT_NAME,OBJECT_ID,EPOCH,MEAN_MOTION,ECCENTRICITY,INCLINATION,RA_OF_ASC_NODE,ARG_OF_PERICENTER,MEAN_ANOMALY,EPHEMERIS_TYPE,CLASSIFICATION_TYPE,NORAD_CAT_ID,ELEMENT_SET_NO,REV_AT_EPOCH,BSTAR,MEAN_MOTION_DOT,MEAN_MOTION_DDOT
SL-16 R/B,1988-039B,2022-02-25T09:17:43.309248,14.19235111,.0019629,71.0153,302.7797,78.6731,281.6598,0,U,19120,999,74959,-.41699E-4,-.136E-5,0
COSMOS 1953,1988-050A,2022-02-25T09:28:42.430656,15.06757474,.0013072,82.5203,169.7485,164.6514,195.5113,0,U,19210,999,83581,.14322E-3,.2162E-4,0
SL-8 R/B,1988-053B,2022-02-24T20:49:01.913664,14.37557081,.0019706,74.0491,305.6482,134.2453,297.9175,0,U,19257,999,76472,.41606E-4,.99E-6,0
COSMOS 1975,1988-093A,2022-02-24T16:34:12.013248,15.05642594,.0013497,82.5203,126.0763,212.4964,147.5434,0,U,19573,999,79631,.66167E-4,.985E-5,0
SL-14 R/B,1988-093B,2022-02-24T22:00:47.897856,14.83433846,.0020455,82.5354,342.6251,223.0525,205.4819,0,U,19574,999,78240,.1931E-4,.183E-5,0
SL-16 R/B,1988-102B,2022-02-24T21:58:56.012448,14.15818421,.0012039,71.0017,11.4918,95.7717,264.4779,0,U,19650,999,71827,.1261E-3,.2E-5,0
INTERCOSMOS 24,1989-080A,2022-02-25T11:29:02.927904,12.56278031,.120282,82.6080,340.2626,101.6099,272.2221,0,U,20261,999,48118,.96284E-4,.355E-5,0
SL-14 R/B,1989-080C,2022-02-25T08:36:03.177504,12.49025448,.1235699,82.5946,38.1090,308.2490,41.3511,0,U,20262,999,47569,.66526E-4,.22E-5,0
DELTA 2 R/B(1),1989-085B,2022-02-25T03:37:05.878272,15.31987795,.0086667,35.6410,80.2841,282.6407,76.4643,0,U,20303,999,76266,.27321E-3,.9705E-4,0
DELTA 1 R/B,1989-089B,2022-02-25T10:45:58.881024,14.48464141,.0073152,97.0980,116.0566,87.2245,273.7322,0,U,20323,999,70285,.34431E-4,.99E-6,0
ARIANE 40 R/B,1990-005H,2022-02-25T03:07:44.809536,14.38178232,.0009377,98.4972,125.1994,304.2270,55.8028,0,U,20443,999,68115,.32176E-4,.54E-6,0
DELTA 2 R/B(1),1990-008B,2022-02-24T21:35:06.357696,14.87826665,.027172,35.6218,210.2703,66.4042,296.4959,0,U,20453,999,70312,.17929E-3,.328E-4,0
COSMOS 2058,1990-010A,2022-02-25T10:39:01.542240,14.98522241,.0013616,82.4884,38.4977,278.8161,81.1520,0,U,20465,999,74196,.85889E-4,.1056E-4,0
SL-14 R/B,1990-010B,2022-02-25T10:33:22.147488,14.81481878,.0021902,82.5035,208.3899,106.2646,254.0979,0,U,20466,999,73128,.24798E-4,.219E-5,0
SL-14 R/B,1990-018B,2022-02-24T20:25:46.673760,14.80133628,.0016039,82.5259,158.1036,251.3205,248.4804,0,U,20511,999,70443,.19293E-4,.17E-5,0
HST,1990-037B,2022-02-24T20:04:04.524672,15.10065439,.0002306,28.4690,194.7267,263.0434,227.3444,0,U,20580,999,54944,.73963E-4,.1417E-4,0
SL-16 R/B,1990-046B,2022-02-25T12:04:01.854336,14.14684815,.0013569,71.0001,150.9161,14.6556,345.4957,0,U,20625,999,64027,.16002E-3,.261E-5,0
COSMOS 2084,1990-055A,2022-02-25T00:43:13.867968,14.92512513,.0105606,62.7920,265.5397,38.0211,322.8276,0,U,20663,999,71552,.66588E-4,.557E-5,0
SL-6 R/B(2),1990-055D,2022-02-24T20:16:06.366432,14.92781626,.0123812,62.7842,180.9897,61.3119,300.0355,0,U,20666,999,71691,.58261E-4,.487E-5,0
SL-8 R/B,1990-078B,2022-02-24T20:55:04.632960,14.37734254,.0561552,82.9225,76.4132,78.1569,288.2011,0,U,20775,999,59433,.1773E-3,.3805E-4,0
SL-8 R/B,1991-006B,2022-02-25T10:52:39.980928,13.77187018,.0022383,82.9454,185.7315,197.9106,226.2754,0,U,21088,999,56154,-.10202E-4,.5E-7,0
OKEAN-3,1991-039A,2022-02-24T19:23:09.770208,14.93373649,.0016098,82.5226,309.7302,263.1689,96.7699,0,U,21397,999,64436,.70951E-4,.771E-5,0
COSMOS 2151,1991-042A,2022-02-25T10:25:18.426720,14.92443754,.0013317,82.4984,54.4797,334.4144,25.6415,0,U,21422,999,66412,.62116E-4,.663E-5,0
SL-14 R/B,1991-042B,2022-02-25T08:20:40.495488,14.79883261,.0018431,82.4968,159.3876,38.8930,321.3604,0,U,21423,999,65608,.18157E-4,.16E-5,0
ERS-1,1991-050A,2022-02-24T21:31:59.469312,14.37862719,.0031841,98.6841,23.4386,251.9474,107.8242,0,U,21574,999,60384,.40566E-4,.77E-6,0
ARIANE 40 R/B,1991-050F,2022-02-25T03:15:44.502336,14.41005761,.0003109,98.3937,127.7771,183.8237,231.1135,0,U,21610,999,60693,.37516E-4,.77E-6,0
INTERCOSMOS 25,1991-086A,2022-02-24T16:23:30.866496,12.05508385,.15152,82.5769,116.3791,36.4724,333.0505,0,U,21819,999,31864,.15025E-3,.771E-5,0
SL-8 R/B,1992-008B,2022-02-24T17:33:51.120288,13.75696478,.0033673,82.9243,283.6081,291.5631,131.8733,0,U,21876,999,50674,-.70641E-5,.8E-7,0
SL-8 R/B,1992-020B,2022-02-24T20:32:11.750784,13.75304217,.0030525,82.9338,168.1952,91.4591,23.7629,0,U,21938,999,49853,.56347E-4,.7E-6,0
COSMOS 2219,1992-076A,2022-02-25T10:39:15.593472,14.13682550,.0020882,71.0594,216.7077,288.5812,71.3042,0,U,22219,999,51047,-.10345E-3,-.243E-5,0
SL-16 R/B,1992-076B,2022-02-25T10:16:00.219648,14.16485295,.0013195,71.0001,50.6899,191.5705,275.5370,0,U,22220,999,51351,-.10325E-3,-.254E-5,0
