SL-16 R/B               
1 19120U 88039B   22056.38730682 -.00000136  00000+0 -41699-4 0  9997
2 19120  71.0153 302.7797 0019629  78.6731 281.6598 14.19235111749597
COSMOS 1953             
1 19210U 88050A   22056.39493554  .00002162  00000+0  14322-3 0  9996
2 19210  82.5203 169.7485 0013072 164.6514 195.5113 15.06757474835811
SL-8 R/B                
1 19257U 88053B   22055.86738326  .00000099  00000+0  41606-4 0  9993
2 19257  74.0491 305.6482 0019706 134.2453 297.9175 14.37557081764721
COSMOS 1975             
1 19573U 88093A   22055.69041682  .00000985  00000+0  66167-4 0  9994
2 19573  82.5203 126.0763 0013497 212.4964 147.5434 15.05642594796319
SL-14 R/B               
1 19574U 88093B   22055.91722104  .00000183  00000+0  19310-4 0  9993
2 19574  82.5354 342.6251 0020455 223.0525 205.4819 14.83433846782407
SL-16 R/B               
1 19650U 88102B   22055.91592607  .00000200  00000+0  12610-3 0  9997
2 19650  71.0017  11.4918 0012039  95.7717 264.4779 14.15818421718273
INTERCOSMOS 24          
1 20261U 89080A   22056.47850611  .00000355  00000+0  96284-4 0  9998
2 20261  82.6080 340.2626 1202820 101.6099 272.2221 12.56278031481186
SL-14 R/B               
1 20262U 89080C   22056.35837011  .00000220  00000+0  66526-4 0  9992
2 20262  82.5946  38.1090 1235699 308.2490  41.3511 12.49025448475695
DELTA 2 R/B(1)          
1 20303U 89085B   22056.15076248  .00009705  00000+0  27321-3 0  9994
2 20303  35.6410  80.2841 0086667 282.6407  76.4643 15.31987795762666
DELTA 1 R/B             
1 20323U 89089B   22056.44859816  .00000099  00000+0  34431-4 0  9990
2 20323  97.0980 116.0566 0073152  87.2245 273.7322 14.48464141702851
ARIANE 40 R/B           
1 20443U 90005H   22056.13037974  .00000054  00000+0  32176-4 0  9997
2 20443  98.4972 125.1994 0009377 304.2270  55.8028 14.38178232681157
DELTA 2 R/B(1)          
1 20453U 90008B   22055.89937914  .00003280  00000+0  17929-3 0  9998
2 20453  35.6218 210.2703 0271720  66.4042 296.4959 14.87826665703127
COSMOS 2058             
1 20465U 90010A   22056.44376785  .00001056  00000+0  85889-4 0  9999
2 20465  82.4884  38.4977 0013616 278.8161  81.1520 14.98522241741963
SL-14 R/B               
1 20466U 90010B   22056.43983967  .00000219  00000+0  24798-4 0  9997
2 20466  82.5035 208.3899 0021902 106.2646 254.0979 14.81481878731288
SL-14 R/B               
1 20511U 90018B   22055.85123465  .00000170  00000+0  19293-4 0  9990
2 20511  82.5259 158.1036 0016039 251.3205 248.4804 14.80133628704437
HST                     
1 20580U 90037B   22055.83616348  .00001417  00000+0  73963-4 0  9991
2 20580  28.4690 194.7267 0002306 263.0434 227.3444 15.10065439549441
SL-16 R/B               
1 20625U 90046B   22056.50279924  .00000261  00000+0  16002-3 0  9997
2 20625  71.0001 150.9161 0013569  14.6556 345.4957 14.14684815640278
COSMOS 2084             
1 20663U 90055A   22056.03002162  .00000557  00000+0  66588-4 0  9998
2 20663  62.7920 265.5397 0105606  38.0211 322.8276 14.92512513715528
SL-6 R/B(2)             
1 20666U 90055D   22055.84451813  .00000487  00000+0  58261-4 0  9991
2 20666  62.7842 180.9897 0123812  61.3119 300.0355 14.92781626716917
SL-8 R/B                
1 20775U 90078B   22055.87158140  .00003805  00000+0  17730-3 0  9999
2 20775  82.9225  76.4132 0561552  78.1569 288.2011 14.37734254594330
SL-8 R/B                
1 21088U 91006B   22056.45324052  .00000005  00000+0 -10202-4 0  9999
2 21088  82.9454 185.7315 0022383 197.9106 226.2754 13.77187018561546
OKEAN-3                 
1 21397U 91039A   22055.80775197  .00000771  00000+0  70951-4 0  9992
2 21397  82.5226 309.7302 0016098 263.1689  96.7699 14.93373649644360
COSMOS 2151             
1 21422U 91042A   22056.43424105  .00000663  00000+0  62116-4 0  9999
2 21422  82.4984  54.4797 0013317 334.4144  25.6415 14.92443754664127
SL-14 R/B               
1 21423U 91042B   22056.34769092  .00000160  00000+0  18157-4 0  9995
2 21423  82.4968 159.3876 0018431  38.8930 321.3604 14.79883261656081
ERS-1                   
1 21574U 91050A   22055.89721608  .00000077  00000+0  40566-4 0  9997
2 21574  98.6841  23.4386 0031841 251.9474 107.8242 14.37862719603845
ARIANE 40 R/B           
1 21610U 91050F   22056.13593174  .00000077  00000+0  37516-4 0  9992
2 21610  98.3937 127.7771 0003109 183.8237 231.1135 14.41005761606937
INTERCOSMOS 25          
1 21819U 91086A   22055.68299614  .00000771  00000+0  15025-3 0  9994
2 21819  82.5769 116.3791 1515200  36.4724 333.0505 12.05508385318646
SL-8 R/B                
1 21876U 92008B   22055.73184167  .00000008  00000+0 -70641-5 0  9995
2 21876  82.9243 283.6081 0033673 291.5631 131.8733 13.75696478506745
SL-8 R/B                
1 21938U 92020B   22055.85569156  .00000070  00000+0  56347-4 0  9990
2 21938  82.9338 168.1952 0030525  91.4591  23.7629 13.75304217498535
COSMOS 2219             
1 22219U 92076A   22056.44393048 -.00000243  00000+0 -10345-3 0  9996
2 22219  71.0594 216.7077 0020882 288.5812  71.3042 14.13682550510477
SL-16 R/B               
1 22220U 92076B   22056.42778032 -.00000254  00000+0 -10325-3 0  9996
2 22220  71.0001  50.6899 0013195 191.5705 275.5370 14.16485295513512
